0 GALILEO-FM4
1 38858U 12055B   13282.39370548  .00000002  00000-0  00000+0 0  1454
2 38858 055.1782 229.4673 0002095 253.3821 106.5795 01.70473579  6164
0 GALILEO-FM4
1 38858U 12055B   13287.08637933 -.00000035  00000-0  00000+0 0  1478
2 38858 055.1761 229.3366 0001919 253.0354 106.9185 01.70473772  6242
0 GALILEO-FM4
1 38858U 12055B   13289.43270939 -.00000045  00000-0  00000+0 0  1480
2 38858 055.1752 229.2715 0001840 254.2495 105.6989 01.70473808  6283
0 GALILEO-FM4
1 38858U 12055B   13290.60588449  .00000012  00000-0  10000-3 0  1500
2 38858 055.1763 229.2381 0002085 255.9793 103.9739 01.70476517  6302
0 GALILEO-FM4
1 38858U 12055B   13291.77906018 -.00000038  00000-0  00000+0 0  1497
2 38858 055.1743 229.2064 0001733 255.9277 104.0293 01.70473794  6327
0 GALILEO-FM4
1 38858U 12055B   13294.12542275 -.00000028  00000-0  00000+0 0  1501
2 38858 055.1732 229.1413 0001653 257.6632 102.3106 01.70473734  6369
